[{"OBJECT_NAME":"STARLINK-34950","OBJECT_ID":"2025-175V","EPOCH":"2026-03-09T14:59:22.156800","MEAN_MOTION":15.0565737,"ECCENTRICITY":0.000252,"INCLINATION":97.6017,"RA_OF_ASC_NODE":302.6406,"ARG_OF_PERICENTER":74.5682,"MEAN_ANOMALY":285.5823,"EPHEMERIS_TYPE":0,"CLASSIFICATION_TYPE":"U","NORAD_CAT_ID":65193,"ELEMENT_SET_NO":999,"REV_AT_EPOCH":3260,"BSTAR":-4.3173e-5,"MEAN_MOTION_DOT":-6.84e-6,"MEAN_MOTION_DDOT":0},{"OBJECT_NAME":"CZ-6A DEB","OBJECT_ID":"2024-140RN","EPOCH":"2026-03-09T09:36:23.350464","MEAN_MOTION":14.99974811,"ECCENTRICITY":0.0047719,"INCLINATION":88.1445,"RA_OF_ASC_NODE":217.6461,"ARG_OF_PERICENTER":172.1525,"MEAN_ANOMALY":188.0467,"EPHEMERIS_TYPE":0,"CLASSIFICATION_TYPE":"U","NORAD_CAT_ID":61168,"ELEMENT_SET_NO":999,"REV_AT_EPOCH":8322,"BSTAR":0.0063622011,"MEAN_MOTION_DOT":0.00081758,"MEAN_MOTION_DDOT":0}]
